$$SOE
2461295.500000000, A.D. 2026-Sep-12 00:00:00.0000, 2.240407979184018E+08, 3.172612982478384E+08, -1.418398893069479E+07,
2461302.500000000, A.D. 2026-Sep-19 00:00:00.0000, 2.157737774443063E+08, 3.240963070188465E+08, -1.492676485015371E+07,
2461309.500000000, A.D. 2026-Sep-26 00:00:00.0000, 2.073296519504281E+08, 3.306653469463534E+08, -1.565729072203095E+07,
2461316.500000000, A.D. 2026-Oct-03 00:00:00.0000, 1.987166025503803E+08, 3.369650247004749E+08, -1.637506152169424E+07,
2461323.500000000, A.D. 2026-Oct-10 00:00:00.0000, 1.899428002972048E+08, 3.429921678658210E+08, -1.707958769802594E+07,
2461330.500000000, A.D. 2026-Oct-17 00:00:00.0000, 1.810164028284758E+08, 3.487438192699128E+08, -1.777039488527857E+07,
2461337.500000000, A.D. 2026-Oct-24 00:00:00.0000, 1.719455513481317E+08, 3.542172313971843E+08, -1.844702362328465E+07,
2461344.500000000, A.D. 2026-Oct-31 00:00:00.0000, 1.627383680222379E+08, 3.594098608309156E+08, -1.910902910191408E+07,
2461351.500000000, A.D. 2026-Nov-07 00:00:00.0000, 1.534029541078568E+08, 3.643193628048234E+08, -1.975598095617573E+07,
2461358.500000000, A.D. 2026-Nov-14 00:00:00.0000, 1.439473889984461E+08, 3.689435867569975E+08, -2.038746305925873E+07,
2461365.500000000, A.D. 2026-Nov-21 00:00:00.0000, 1.343797283571405E+08, 3.732805735662965E+08, -2.100307309247038E+07,
2461372.500000000, A.D. 2026-Nov-28 00:00:00.0000, 1.247080003163354E+08, 3.773285514568414E+08, -2.160242204552625E+07,
2461379.500000000, A.D. 2026-Dec-05 00:00:00.0000, 1.149402033388241E+08, 3.810859299173101E+08, -2.218513403222017E+07,
2461386.500000000, A.D. 2026-Dec-12 00:00:00.0000, 1.050843058872503E+08, 3.845512947510031E+08, -2.275084618285722E+07,
2461393.500000000, A.D. 2026-Dec-19 00:00:00.0000, 9.514824599643891E+07, 3.877234042652255E+08, -2.329920844005923E+07,
2461400.500000000, A.D. 2026-Dec-26 00:00:00.0000, 8.513993058929242E+07, 3.906011857354987E+08, -2.382988331630689E+07,
2461407.500000000, A.D. 2027-Jan-02 00:00:00.0000, 7.506723479749204E+07, 3.931837319569709E+08, -2.434254565497498E+07,
2461414.500000000, A.D. 2027-Jan-09 00:00:00.0000, 6.493800139024211E+07, 3.954702979047682E+08, -2.483688240479910E+07,
2461421.500000000, A.D. 2027-Jan-16 00:00:00.0000, 5.476004033272078E+07, 3.974602975121624E+08, -2.531259241099532E+07,
2461428.500000000, A.D. 2027-Jan-23 00:00:00.0000, 4.454112850645619E+07, 3.991533005258970E+08, -2.576938623100963E+07,
2461435.500000000, A.D. 2027-Jan-30 00:00:00.0000, 3.428900976545405E+07, 4.005490293891816E+08, -2.620698599640097E+07,
2461442.500000000, A.D. 2027-Feb-06 00:00:00.0000, 2.401139573882398E+07, 4.016473564909298E+08, -2.662512533241872E+07,
2461449.500000000, A.D. 2027-Feb-13 00:00:00.0000, 1.371596690680027E+07, 4.024483030006102E+08, -2.702354919411373E+07,
2461456.500000000, A.D. 2027-Feb-20 00:00:00.0000, 3.410371576041675E+06, 4.029520384944115E+08, -2.740201346734501E+07,
2461463.500000000, A.D. 2027-Feb-27 00:00:00.0000, -6.897775863146041E+06, 4.031588781517256E+08, -2.776028472467239E+07,
2461470.500000000, A.D. 2027-Mar-06 00:00:00.0000, -1.720089439436242E+07, 4.030692794448822E+08, -2.809814025618322E+07,
2461477.500000000, A.D. 2027-Mar-13 00:00:00.0000, -2.749143515671275E+07, 4.026838403732623E+08, -2.841536806221391E+07,
2461484.500000000, A.D. 2027-Mar-20 00:00:00.0000, -3.776188068861105E+07, 4.020032984038861E+08, -2.871176677288868E+07,
2461491.500000000, A.D. 2027-Mar-27 00:00:00.0000, -4.800474444184376E+07, 4.010285295663802E+08, -2.898714555793582E+07,
2461498.500000000, A.D. 2027-Apr-03 00:00:00.0000, -5.821257037282420E+07, 3.997605476524825E+08, -2.924132404950117E+07,
2461505.500000000, A.D. 2027-Apr-10 00:00:00.0000, -6.837793255917278E+07, 3.982005035412972E+08, -2.947413228193024E+07,
2461512.500000000, A.D. 2027-Apr-17 00:00:00.0000, -7.849343482864223E+07, 3.963496846340910E+08, -2.968541065192463E+07,
2461519.500000000, A.D. 2027-Apr-24 00:00:00.0000, -8.855171033012801E+07, 3.942095143344388E+08, -2.987500991157584E+07,
2461526.500000000, A.D. 2027-May-01 00:00:00.0000, -9.854542075618005E+07, 3.917815515994042E+08, -3.004279121959133E+07,
2461533.500000000, A.D. 2027-May-08 00:00:00.0000, -1.084672549191914E+08, 3.890674913086053E+08, -3.018862621794930E+07,
2461540.500000000, A.D. 2027-May-15 00:00:00.0000, -1.183099281873458E+08, 3.860691664049264E+08, -3.031239691942462E+07,
2461547.500000000, A.D. 2027-May-22 00:00:00.0000, -1.280661843502724E+08, 3.827885492134893E+08, -3.041399547461542E+07,
2461554.500000000, A.D. 2027-May-29 00:00:00.0000, -1.377287965666807E+08, 3.792277504635788E+08, -3.049332424519461E+07,
2461561.500000000, A.D. 2027-Jun-05 00:00:00.0000, -1.472905665219108E+08, 3.753890191439981E+08, -3.055029600876512E+07,
2461568.500000000, A.D. 2027-Jun-12 00:00:00.0000, -1.567443238120901E+08, 3.712747436252918E+08, -3.058483407682955E+07,
2461575.500000000, A.D. 2027-Jun-19 00:00:00.0000, -1.660829258938040E+08, 3.668874531115641E+08, -3.059687237194423E+07,
2461582.500000000, A.D. 2027-Jun-26 00:00:00.0000, -1.752992583293214E+08, 3.622298191575494E+08, -3.058635551086301E+07,
2461589.500000000, A.D. 2027-Jul-03 00:00:00.0000, -1.843862352054631E+08, 3.573046572569790E+08, -3.055323890511394E+07,
2461596.500000000, A.D. 2027-Jul-10 00:00:00.0000, -1.933367996996354E+08, 3.521149285092054E+08, -3.049748888180684E+07,
2461603.500000000, A.D. 2027-Jul-17 00:00:00.0000, -2.021439247668473E+08, 3.466637413236444E+08, -3.041908283136195E+07,
2461610.500000000, A.D. 2027-Jul-24 00:00:00.0000, -2.108006138007592E+08, 3.409543530973360E+08, -3.031800940174916E+07,
2461617.500000000, A.D. 2027-Jul-31 00:00:00.0000, -2.192999008659496E+08, 3.349901720979817E+08, -3.019426875752968E+07,
2461624.500000000, A.D. 2027-Aug-07 00:00:00.0000, -2.276348507110440E+08, 3.287747606992615E+08, -3.004787279067463E+07,
2461631.500000000, A.D. 2027-Aug-14 00:00:00.0000, -2.357985608742612E+08, 3.223118397100410E+08, -2.987884509247078E+07,
2461638.500000000, A.D. 2027-Aug-21 00:00:00.0000, -2.437841652726288E+08, 3.156052904264951E+08, -2.968722101743296E+07,
2461645.500000000, A.D. 2027-Aug-28 00:00:00.0000, -2.515848358563997E+08, 3.086591555995594E+08, -2.947304805434033E+07,
2461652.500000000, A.D. 2027-Sep-04 00:00:00.0000, -2.591937835293751E+08, 3.014776418154887E+08, -2.923638619253923E+07,
2461659.500000000, A.D. 2027-Sep-11 00:00:00.0000, -2.666042597469442E+08, 2.940651226292327E+08, -2.897730821160370E+07,
2461666.500000000, A.D. 2027-Sep-18 00:00:00.0000, -2.738095586707160E+08, 2.864261417981713E+08, -2.869589996064788E+07,
2461673.500000000, A.D. 2027-Sep-25 00:00:00.0000, -2.808030196626786E+08, 2.785654165327924E+08, -2.839226065485586E+07,
2461680.500000000, A.D. 2027-Oct-02 00:00:00.0000, -2.875780300565352E+08, 2.704878407842717E+08, -2.806650319386460E+07,
2461687.500000000, A.D. 2027-Oct-09 00:00:00.0000, -2.941280281973533E+08, 2.621984885556890E+08, -2.771875450433891E+07,
2461694.500000000, A.D. 2027-Oct-16 00:00:00.0000, -3.004465067006855E+08, 2.537026171723214E+08, -2.734915591687456E+07,
2461701.500000000, A.D. 2027-Oct-23 00:00:00.0000, -3.065270156861005E+08, 2.450056704946550E+08, -2.695786360130949E+07,
2461708.500000000, A.D. 2027-Oct-30 00:00:00.0000, -3.123631656257521E+08, 2.361132826724620E+08, -2.654504904460526E+07,
2461715.500000000, A.D. 2027-Nov-06 00:00:00.0000, -3.179486309884338E+08, 2.270312835550532E+08, -2.611089937220506E+07,
2461722.500000000, A.D. 2027-Nov-13 00:00:00.0000, -3.232771566834466E+08, 2.177657036695877E+08, -2.565561750073665E+07,
2461729.500000000, A.D. 2027-Nov-20 00:00:00.0000, -3.283425644174091E+08, 2.083227765689859E+08, -2.517942256634006E+07,
2461736.500000000, A.D. 2027-Nov-27 00:00:00.0000, -3.331387573590984E+08, 1.987089414943254E+08, -2.468255053288298E+07,
2461743.500000000, A.D. 2027-Dec-04 00:00:00.0000, -3.376597251550435E+08, 1.889308472448629E+08, -2.416525471906564E+07,
2461750.500000000, A.D. 2027-Dec-11 00:00:00.0000, -3.418995498665276E+08, 1.789953562737959E+08, -2.362780627257891E+07,
2461757.500000000, A.D. 2027-Dec-18 00:00:00.0000, -3.458524125700184E+08, 1.689095486505692E+08, -2.307049464331193E+07,
2461764.500000000, A.D. 2027-Dec-25 00:00:00.0000, -3.495126004853674E+08, 1.586807258640601E+08, -2.249362806835382E+07,
2461771.500000000, A.D. 2028-Jan-01 00:00:00.0000, -3.528745146069790E+08, 1.483164144554125E+08, -2.189753406993601E+07,
$$EOE